{
  "norad_id": 68751,
  "name": "STARLINK-37277",
  "history": [
    {
      "epoch": "2026-04-23T06:55:45.745824Z",
      "apogee_km": 313.6002327692131,
      "perigee_km": 312.6704135671853,
      "latitude_deg": -3.376131053761803e-05,
      "longitude_deg": 20.140796493595637,
      "height_km": 316.0215455570614,
      "semi_major_axis_km": 6691.272323168198,
      "eccentricity": 6.948e-05,
      "inclination_deg": 97.2872,
      "raan_deg": 335.4195,
      "arg_perigee_deg": 50.4871,
      "mean_anomaly_deg": 309.6461,
      "mean_motion_rev_day": 15.86133377
    }
  ]
}