STARLINK-37277          
1 68751U 26082Z   26113.28872391 -.00899029  00000+0 -40417-2 0  9994
2 68751  97.2872 335.4195 0000694  50.4871 309.6461 15.86133377  1147
